{"fetched_at":"2026-07-10T07:58:48.601Z","source":"https://celestrak.org/NORAD/elements/gp.php?GROUP=stations&FORMAT=JSON","constellation":"iss","records":[{"OBJECT_NAME":"ISS (ZARYA)","OBJECT_ID":"1998-067A","EPOCH":"2026-07-09T16:50:48.208704","CLASSIFICATION_TYPE":"U","MEAN_MOTION":15.48959671,"ECCENTRICITY":0.0006668,"INCLINATION":51.6304,"RA_OF_ASC_NODE":188.662,"ARG_OF_PERICENTER":275.8666,"MEAN_ANOMALY":84.1562,"EPHEMERIS_TYPE":0,"NORAD_CAT_ID":25544,"ELEMENT_SET_NO":999,"REV_AT_EPOCH":57524,"BSTAR":0.0001058,"MEAN_MOTION_DOT":0.00005376,"MEAN_MOTION_DDOT":0}]}
