ISS (ZARYA)             
1 25544U 98067A   26190.70194686  .00005376  00000+0  10580-3 0  9996
2 25544  51.6304 188.6620 0006668 275.8666  84.1562 15.48959671575242
